ORBCOMM FM24            
1 25478U 98053D   24118.33070286  .00003828  00000+0  13640-2 0  9992
2 25478  45.0075  77.0408 0002834 309.9782  50.0816 14.35594779337636
ORBCOMM FM25            
1 25479U 98053E   24118.57515641  .00003480  00000+0  12452-2 0  9992
2 25479  45.0069  74.1285 0005308 321.4235  38.6233 14.35572765337964
ORBCOMM FM26            
1 25480U 98053F   24118.57669918  .00002816  00000+0  10277-2 0  9996
2 25480  45.0067  68.1857 0007122 339.8913  20.1653 14.35028534337900
ORBCOMM FM27            
1 25481U 98053G   24118.56314493  .00003484  00000+0  12468-2 0  9997
2 25481  45.0053  74.4503 0001388 320.0874  39.9871 14.35557891337891
ORBCOMM FM28            
1 25482U 98053H   24118.83190027  .00003030  00000+0  10812-2 0  9991
2 25482  45.0067  11.6918 0004501  14.1448 345.9525 14.36003519338776
ORBCOMM FM30            
1 25980U 99065A   24118.47024735  .00002977  00000+0  10810-2 0  9997
2 25980  45.0305 254.2051 0005291  98.1218 262.0230 14.35173733274687
ORBCOMM FM31            
1 25981U 99065B   24118.43579554  .00003106  00000+0  11256-2 0  9998
2 25981  45.0220 248.0691 0003129 136.3404 223.7691 14.35174951274234
ORBCOMM FM32            
1 25982U 99065C   24118.68657544  .00002708  00000+0  10080-2 0  9993
2 25982  45.0148 260.5994 0005615 127.5481 232.5876 14.34149928275035
