<?xml version="1.0" encoding="UTF-8"?>
<ndm xmlns:xsi="http://www.w3.org/2001/XMLSchema-instance" xsi:noNamespaceSchemaLocation="https://sanaregistry.org/r/ndmxml_unqualified/ndmxml-2.0.0-master-2.0.xsd">
<omm id="CCSDS_OMM_VERS" version="2.0">
<header><CREATION_DATE/><ORIGINATOR/></header><body><segment><metadata><OBJECT_NAME>ORBCOMM FM24</OBJECT_NAME><OBJECT_ID>1998-053D</OBJECT_ID><CENTER_NAME>EARTH</CENTER_NAME><REF_FRAME>TEME</REF_FRAME><TIME_SYSTEM>UTC</TIME_SYSTEM><MEAN_ELEMENT_THEORY>SGP4</MEAN_ELEMENT_THEORY></metadata><data><meanElements><EPOCH>2024-04-27T07:56:12.727104</EPOCH><MEAN_MOTION>14.35594779</MEAN_MOTION><ECCENTRICITY>.0002834</ECCENTRICITY><INCLINATION>45.0075</INCLINATION><RA_OF_ASC_NODE>77.0408</RA_OF_ASC_NODE><ARG_OF_PERICENTER>309.9782</ARG_OF_PERICENTER><MEAN_ANOMALY>50.0816</MEAN_ANOMALY></meanElements><tleParameters><EPHEMERIS_TYPE>0</EPHEMERIS_TYPE><CLASSIFICATION_TYPE>U</CLASSIFICATION_TYPE><NORAD_CAT_ID>25478</NORAD_CAT_ID><ELEMENT_SET_NO>999</ELEMENT_SET_NO><REV_AT_EPOCH>33763</REV_AT_EPOCH><BSTAR>.1364E-2</BSTAR><MEAN_MOTION_DOT>.3828E-4</MEAN_MOTION_DOT><MEAN_MOTION_DDOT>0</MEAN_MOTION_DDOT></tleParameters></data></segment></body></omm>
<omm id="CCSDS_OMM_VERS" version="2.0">
<header><CREATION_DATE/><ORIGINATOR/></header><body><segment><metadata><OBJECT_NAME>ORBCOMM FM25</OBJECT_NAME><OBJECT_ID>1998-053E</OBJECT_ID><CENTER_NAME>EARTH</CENTER_NAME><REF_FRAME>TEME</REF_FRAME><TIME_SYSTEM>UTC</TIME_SYSTEM><MEAN_ELEMENT_THEORY>SGP4</MEAN_ELEMENT_THEORY></metadata><data><meanElements><EPOCH>2024-04-27T13:48:13.513824</EPOCH><MEAN_MOTION>14.35572765</MEAN_MOTION><ECCENTRICITY>.0005308</ECCENTRICITY><INCLINATION>45.0069</INCLINATION><RA_OF_ASC_NODE>74.1285</RA_OF_ASC_NODE><ARG_OF_PERICENTER>321.4235</ARG_OF_PERICENTER><MEAN_ANOMALY>38.6233</MEAN_ANOMALY></meanElements><tleParameters><EPHEMERIS_TYPE>0</EPHEMERIS_TYPE><CLASSIFICATION_TYPE>U</CLASSIFICATION_TYPE><NORAD_CAT_ID>25479</NORAD_CAT_ID><ELEMENT_SET_NO>999</ELEMENT_SET_NO><REV_AT_EPOCH>33796</REV_AT_EPOCH><BSTAR>.12452E-2</BSTAR><MEAN_MOTION_DOT>.348E-4</MEAN_MOTION_DOT><MEAN_MOTION_DDOT>0</MEAN_MOTION_DDOT></tleParameters></data></segment></body></omm>
<omm id="CCSDS_OMM_VERS" version="2.0">
<header><CREATION_DATE/><ORIGINATOR/></header><body><segment><metadata><OBJECT_NAME>ORBCOMM FM26</OBJECT_NAME><OBJECT_ID>1998-053F</OBJECT_ID><CENTER_NAME>EARTH</CENTER_NAME><REF_FRAME>TEME</REF_FRAME><TIME_SYSTEM>UTC</TIME_SYSTEM><MEAN_ELEMENT_THEORY>SGP4</MEAN_ELEMENT_THEORY></metadata><data><meanElements><EPOCH>2024-04-27T13:50:26.809152</EPOCH><MEAN_MOTION>14.35028534</MEAN_MOTION><ECCENTRICITY>.0007122</ECCENTRICITY><INCLINATION>45.0067</INCLINATION><RA_OF_ASC_NODE>68.1857</RA_OF_ASC_NODE><ARG_OF_PERICENTER>339.8913</ARG_OF_PERICENTER><MEAN_ANOMALY>20.1653</MEAN_ANOMALY></meanElements><tleParameters><EPHEMERIS_TYPE>0</EPHEMERIS_TYPE><CLASSIFICATION_TYPE>U</CLASSIFICATION_TYPE><NORAD_CAT_ID>25480</NORAD_CAT_ID><ELEMENT_SET_NO>999</ELEMENT_SET_NO><REV_AT_EPOCH>33790</REV_AT_EPOCH><BSTAR>.10277E-2</BSTAR><MEAN_MOTION_DOT>.2816E-4</MEAN_MOTION_DOT><MEAN_MOTION_DDOT>0</MEAN_MOTION_DDOT></tleParameters></data></segment></body></omm>
<omm id="CCSDS_OMM_VERS" version="2.0">
<header><CREATION_DATE/><ORIGINATOR/></header><body><segment><metadata><OBJECT_NAME>ORBCOMM FM27</OBJECT_NAME><OBJECT_ID>1998-053G</OBJECT_ID><CENTER_NAME>EARTH</CENTER_NAME><REF_FRAME>TEME</REF_FRAME><TIME_SYSTEM>UTC</TIME_SYSTEM><MEAN_ELEMENT_THEORY>SGP4</MEAN_ELEMENT_THEORY></metadata><data><meanElements><EPOCH>2024-04-27T13:30:55.721952</EPOCH><MEAN_MOTION>14.35557891</MEAN_MOTION><ECCENTRICITY>.0001388</ECCENTRICITY><INCLINATION>45.0053</INCLINATION><RA_OF_ASC_NODE>74.4503</RA_OF_ASC_NODE><ARG_OF_PERICENTER>320.0874</ARG_OF_PERICENTER><MEAN_ANOMALY>39.9871</MEAN_ANOMALY></meanElements><tleParameters><EPHEMERIS_TYPE>0</EPHEMERIS_TYPE><CLASSIFICATION_TYPE>U</CLASSIFICATION_TYPE><NORAD_CAT_ID>25481</NORAD_CAT_ID><ELEMENT_SET_NO>999</ELEMENT_SET_NO><REV_AT_EPOCH>33789</REV_AT_EPOCH><BSTAR>.12468E-2</BSTAR><MEAN_MOTION_DOT>.3484E-4</MEAN_MOTION_DOT><MEAN_MOTION_DDOT>0</MEAN_MOTION_DDOT></tleParameters></data></segment></body></omm>
<omm id="CCSDS_OMM_VERS" version="2.0">
<header><CREATION_DATE/><ORIGINATOR/></header><body><segment><metadata><OBJECT_NAME>ORBCOMM FM28</OBJECT_NAME><OBJECT_ID>1998-053H</OBJECT_ID><CENTER_NAME>EARTH</CENTER_NAME><REF_FRAME>TEME</REF_FRAME><TIME_SYSTEM>UTC</TIME_SYSTEM><MEAN_ELEMENT_THEORY>SGP4</MEAN_ELEMENT_THEORY></metadata><data><meanElements><EPOCH>2024-04-27T19:57:56.183328</EPOCH><MEAN_MOTION>14.36003519</MEAN_MOTION><ECCENTRICITY>.0004501</ECCENTRICITY><INCLINATION>45.0067</INCLINATION><RA_OF_ASC_NODE>11.6918</RA_OF_ASC_NODE><ARG_OF_PERICENTER>14.1448</ARG_OF_PERICENTER><MEAN_ANOMALY>345.9525</MEAN_ANOMALY></meanElements><tleParameters><EPHEMERIS_TYPE>0</EPHEMERIS_TYPE><CLASSIFICATION_TYPE>U</CLASSIFICATION_TYPE><NORAD_CAT_ID>25482</NORAD_CAT_ID><ELEMENT_SET_NO>999</ELEMENT_SET_NO><REV_AT_EPOCH>33877</REV_AT_EPOCH><BSTAR>.10812E-2</BSTAR><MEAN_MOTION_DOT>.303E-4</MEAN_MOTION_DOT><MEAN_MOTION_DDOT>0</MEAN_MOTION_DDOT></tleParameters></data></segment></body></omm>
<omm id="CCSDS_OMM_VERS" version="2.0">
<header><CREATION_DATE/><ORIGINATOR/></header><body><segment><metadata><OBJECT_NAME>ORBCOMM FM30</OBJECT_NAME><OBJECT_ID>1999-065A</OBJECT_ID><CENTER_NAME>EARTH</CENTER_NAME><REF_FRAME>TEME</REF_FRAME><TIME_SYSTEM>UTC</TIME_SYSTEM><MEAN_ELEMENT_THEORY>SGP4</MEAN_ELEMENT_THEORY></metadata><data><meanElements><EPOCH>2024-04-27T11:17:09.371040</EPOCH><MEAN_MOTION>14.35173733</MEAN_MOTION><ECCENTRICITY>.0005291</ECCENTRICITY><INCLINATION>45.0305</INCLINATION><RA_OF_ASC_NODE>254.2051</RA_OF_ASC_NODE><ARG_OF_PERICENTER>98.1218</ARG_OF_PERICENTER><MEAN_ANOMALY>262.0230</MEAN_ANOMALY></meanElements><tleParameters><EPHEMERIS_TYPE>0</EPHEMERIS_TYPE><CLASSIFICATION_TYPE>U</CLASSIFICATION_TYPE><NORAD_CAT_ID>25980</NORAD_CAT_ID><ELEMENT_SET_NO>999</ELEMENT_SET_NO><REV_AT_EPOCH>27468</REV_AT_EPOCH><BSTAR>.1081E-2</BSTAR><MEAN_MOTION_DOT>.2977E-4</MEAN_MOTION_DOT><MEAN_MOTION_DDOT>0</MEAN_MOTION_DDOT></tleParameters></data></segment></body></omm>
<omm id="CCSDS_OMM_VERS" version="2.0">
<header><CREATION_DATE/><ORIGINATOR/></header><body><segment><metadata><OBJECT_NAME>ORBCOMM FM31</OBJECT_NAME><OBJECT_ID>1999-065B</OBJECT_ID><CENTER_NAME>EARTH</CENTER_NAME><REF_FRAME>TEME</REF_FRAME><TIME_SYSTEM>UTC</TIME_SYSTEM><MEAN_ELEMENT_THEORY>SGP4</MEAN_ELEMENT_THEORY></metadata><data><meanElements><EPOCH>2024-04-27T10:27:32.734656</EPOCH><MEAN_MOTION>14.35174951</MEAN_MOTION><ECCENTRICITY>.0003129</ECCENTRICITY><INCLINATION>45.0220</INCLINATION><RA_OF_ASC_NODE>248.0691</RA_OF_ASC_NODE><ARG_OF_PERICENTER>136.3404</ARG_OF_PERICENTER><MEAN_ANOMALY>223.7691</MEAN_ANOMALY></meanElements><tleParameters><EPHEMERIS_TYPE>0</EPHEMERIS_TYPE><CLASSIFICATION_TYPE>U</CLASSIFICATION_TYPE><NORAD_CAT_ID>25981</NORAD_CAT_ID><ELEMENT_SET_NO>999</ELEMENT_SET_NO><REV_AT_EPOCH>27423</REV_AT_EPOCH><BSTAR>.11256E-2</BSTAR><MEAN_MOTION_DOT>.3106E-4</MEAN_MOTION_DOT><MEAN_MOTION_DDOT>0</MEAN_MOTION_DDOT></tleParameters></data></segment></body></omm>
<omm id="CCSDS_OMM_VERS" version="2.0">
<header><CREATION_DATE/><ORIGINATOR/></header><body><segment><metadata><OBJECT_NAME>ORBCOMM FM32</OBJECT_NAME><OBJECT_ID>1999-065C</OBJECT_ID><CENTER_NAME>EARTH</CENTER_NAME><REF_FRAME>TEME</REF_FRAME><TIME_SYSTEM>UTC</TIME_SYSTEM><MEAN_ELEMENT_THEORY>SGP4</MEAN_ELEMENT_THEORY></metadata><data><meanElements><EPOCH>2024-04-27T16:28:40.118016</EPOCH><MEAN_MOTION>14.34149928</MEAN_MOTION><ECCENTRICITY>.0005615</ECCENTRICITY><INCLINATION>45.0148</INCLINATION><RA_OF_ASC_NODE>260.5994</RA_OF_ASC_NODE><ARG_OF_PERICENTER>127.5481</ARG_OF_PERICENTER><MEAN_ANOMALY>232.5876</MEAN_ANOMALY></meanElements><tleParameters><EPHEMERIS_TYPE>0</EPHEMERIS_TYPE><CLASSIFICATION_TYPE>U</CLASSIFICATION_TYPE><NORAD_CAT_ID>25982</NORAD_CAT_ID><ELEMENT_SET_NO>999</ELEMENT_SET_NO><REV_AT_EPOCH>27503</REV_AT_EPOCH><BSTAR>.1008E-2</BSTAR><MEAN_MOTION_DOT>.2708E-4</MEAN_MOTION_DOT><MEAN_MOTION_DDOT>0</MEAN_MOTION_DDOT></tleParameters></data></segment></body></omm>

</ndm>
